[{"OBJECT_NAME":"STARLINK-31171","OBJECT_ID":"2024-017J","EPOCH":"2026-02-27T04:25:24.745152","MEAN_MOTION":15.30198553,"ECCENTRICITY":0.00026147,"INCLINATION":53.1519,"RA_OF_ASC_NODE":229.5609,"ARG_OF_PERICENTER":73.2019,"MEAN_ANOMALY":286.9268,"EPHEMERIS_TYPE":0,"CLASSIFICATION_TYPE":"U","NORAD_CAT_ID":58834,"ELEMENT_SET_NO":999,"REV_AT_EPOCH":11877,"BSTAR":1.509733e-6,"MEAN_MOTION_DOT":-3.15e-6,"MEAN_MOTION_DDOT":0},{"OBJECT_NAME":"STARLINK-31246","OBJECT_ID":"2024-017K","EPOCH":"2026-02-26T22:52:30.936576","MEAN_MOTION":15.30193812,"ECCENTRICITY":0.0001006,"INCLINATION":53.156,"RA_OF_ASC_NODE":254.1012,"ARG_OF_PERICENTER":106.8743,"MEAN_ANOMALY":253.2368,"EPHEMERIS_TYPE":0,"CLASSIFICATION_TYPE":"U","NORAD_CAT_ID":58835,"ELEMENT_SET_NO":999,"REV_AT_EPOCH":11841,"BSTAR":0.00012749,"MEAN_MOTION_DOT":3.418e-5,"MEAN_MOTION_DDOT":0},{"OBJECT_NAME":"STARLINK-31251","OBJECT_ID":"2024-017L","EPOCH":"2026-02-26T23:03:08.932320","MEAN_MOTION":15.30195879,"ECCENTRICITY":7.44e-5,"INCLINATION":53.1603,"RA_OF_ASC_NODE":254.1465,"ARG_OF_PERICENTER":74.0282,"MEAN_ANOMALY":286.0801,"EPHEMERIS_TYPE":0,"CLASSIFICATION_TYPE":"U","NORAD_CAT_ID":58836,"ELEMENT_SET_NO":999,"REV_AT_EPOCH":11852,"BSTAR":0.00010411,"MEAN_MOTION_DOT":2.725e-5,"MEAN_MOTION_DDOT":0},{"OBJECT_NAME":"STARLINK-31249","OBJECT_ID":"2024-017N","EPOCH":"2026-02-27T05:28:29.436672","MEAN_MOTION":15.30173986,"ECCENTRICITY":0.0001029,"INCLINATION":53.1581,"RA_OF_ASC_NODE":252.9726,"ARG_OF_PERICENTER":92.4916,"MEAN_ANOMALY":267.6202,"EPHEMERIS_TYPE":0,"CLASSIFICATION_TYPE":"U","NORAD_CAT_ID":58838,"ELEMENT_SET_NO":999,"REV_AT_EPOCH":11845,"BSTAR":0.00014388453,"MEAN_MOTION_DOT":3.901e-5,"MEAN_MOTION_DDOT":0},{"OBJECT_NAME":"STARLINK-31250","OBJECT_ID":"2024-017P","EPOCH":"2026-02-26T13:00:58.334976","MEAN_MOTION":15.30197763,"ECCENTRICITY":0.0001212,"INCLINATION":53.1615,"RA_OF_ASC_NODE":245.8599,"ARG_OF_PERICENTER":97.4781,"MEAN_ANOMALY":262.6357,"EPHEMERIS_TYPE":0,"CLASSIFICATION_TYPE":"U","NORAD_CAT_ID":58839,"ELEMENT_SET_NO":999,"REV_AT_EPOCH":11844,"BSTAR":1.5102e-5,"MEAN_MOTION_DOT":8.8e-7,"MEAN_MOTION_DDOT":0},{"OBJECT_NAME":"STARLINK-31248","OBJECT_ID":"2024-017Q","EPOCH":"2026-02-27T00:12:09.776736","MEAN_MOTION":15.30197065,"ECCENTRICITY":0.00012702,"INCLINATION":53.1591,"RA_OF_ASC_NODE":266.4939,"ARG_OF_PERICENTER":99.8239,"MEAN_ANOMALY":260.2905,"EPHEMERIS_TYPE":0,"CLASSIFICATION_TYPE":"U","NORAD_CAT_ID":58840,"ELEMENT_SET_NO":999,"REV_AT_EPOCH":11835,"BSTAR":3.2845396e-5,"MEAN_MOTION_DOT":6.14e-6,"MEAN_MOTION_DDOT":0},{"OBJECT_NAME":"STARLINK-31236","OBJECT_ID":"2024-017R","EPOCH":"2026-02-26T21:47:19.873824","MEAN_MOTION":15.301993,"ECCENTRICITY":0.000106,"INCLINATION":53.1607,"RA_OF_ASC_NODE":254.5264,"ARG_OF_PERICENTER":100.9271,"MEAN_ANOMALY":259.1849,"EPHEMERIS_TYPE":0,"CLASSIFICATION_TYPE":"U","NORAD_CAT_ID":58841,"ELEMENT_SET_NO":999,"REV_AT_EPOCH":11840,"BSTAR":4.4504e-5,"MEAN_MOTION_DOT":9.59e-6,"MEAN_MOTION_DDOT":0},{"OBJECT_NAME":"STARLINK-31228","OBJECT_ID":"2024-017S","EPOCH":"2026-02-27T05:33:02.281824","MEAN_MOTION":15.30203033,"ECCENTRICITY":0.00011879,"INCLINATION":53.158,"RA_OF_ASC_NODE":252.9904,"ARG_OF_PERICENTER":94.7507,"MEAN_ANOMALY":265.3629,"EPHEMERIS_TYPE":0,"CLASSIFICATION_TYPE":"U","NORAD_CAT_ID":58842,"ELEMENT_SET_NO":999,"REV_AT_EPOCH":11845,"BSTAR":-7.5543287e-5,"MEAN_MOTION_DOT":-2.596e-5,"MEAN_MOTION_DDOT":0},{"OBJECT_NAME":"STARLINK-31280","OBJECT_ID":"2024-017T","EPOCH":"2026-02-27T05:42:10.130400","MEAN_MOTION":15.30196331,"ECCENTRICITY":9.077e-5,"INCLINATION":53.1595,"RA_OF_ASC_NODE":253.03,"ARG_OF_PERICENTER":106.7612,"MEAN_ANOMALY":253.3489,"EPHEMERIS_TYPE":0,"CLASSIFICATION_TYPE":"U","NORAD_CAT_ID":58843,"ELEMENT_SET_NO":999,"REV_AT_EPOCH":11845,"BSTAR":0.00013916882,"MEAN_MOTION_DOT":3.764e-5,"MEAN_MOTION_DDOT":0},{"OBJECT_NAME":"STARLINK-31269","OBJECT_ID":"2024-017U","EPOCH":"2026-02-27T01:45:07.123968","MEAN_MOTION":15.3019628,"ECCENTRICITY":0.00012595,"INCLINATION":53.162,"RA_OF_ASC_NODE":343.7619,"ARG_OF_PERICENTER":114.2931,"MEAN_ANOMALY":245.8201,"EPHEMERIS_TYPE":0,"CLASSIFICATION_TYPE":"U","NORAD_CAT_ID":58844,"ELEMENT_SET_NO":999,"REV_AT_EPOCH":11714,"BSTAR":3.3334851e-5,"MEAN_MOTION_DOT":6.28e-6,"MEAN_MOTION_DDOT":0},{"OBJECT_NAME":"STARLINK-31264","OBJECT_ID":"2024-017V","EPOCH":"2026-02-27T02:06:14.447808","MEAN_MOTION":15.30194586,"ECCENTRICITY":0.00010573,"INCLINATION":53.1613,"RA_OF_ASC_NODE":343.1471,"ARG_OF_PERICENTER":95.5626,"MEAN_ANOMALY":264.5495,"EPHEMERIS_TYPE":0,"CLASSIFICATION_TYPE":"U","NORAD_CAT_ID":58845,"ELEMENT_SET_NO":999,"REV_AT_EPOCH":11715,"BSTAR":-1.100934e-6,"MEAN_MOTION_DOT":-3.92e-6,"MEAN_MOTION_DDOT":0},{"OBJECT_NAME":"STARLINK-31273","OBJECT_ID":"2024-017W","EPOCH":"2026-02-27T05:46:43.470624","MEAN_MOTION":15.30190643,"ECCENTRICITY":0.00014595,"INCLINATION":53.1594,"RA_OF_ASC_NODE":253.049,"ARG_OF_PERICENTER":87.8045,"MEAN_ANOMALY":272.3123,"EPHEMERIS_TYPE":0,"CLASSIFICATION_TYPE":"U","NORAD_CAT_ID":58846,"ELEMENT_SET_NO":999,"REV_AT_EPOCH":11845,"BSTAR":4.961944e-6,"MEAN_MOTION_DOT":-2.12e-6,"MEAN_MOTION_DDOT":0},{"OBJECT_NAME":"STARLINK-31262","OBJECT_ID":"2024-017X","EPOCH":"2026-02-27T02:16:53.046624","MEAN_MOTION":15.30177819,"ECCENTRICITY":0.00011248,"INCLINATION":53.1624,"RA_OF_ASC_NODE":343.1917,"ARG_OF_PERICENTER":97.4158,"MEAN_ANOMALY":262.6971,"EPHEMERIS_TYPE":0,"CLASSIFICATION_TYPE":"U","NORAD_CAT_ID":58847,"ELEMENT_SET_NO":999,"REV_AT_EPOCH":11715,"BSTAR":0.0001511439,"MEAN_MOTION_DOT":4.117e-5,"MEAN_MOTION_DDOT":0},{"OBJECT_NAME":"STARLINK-31238","OBJECT_ID":"2024-019A","EPOCH":"2026-02-27T02:07:26.375808","MEAN_MOTION":15.27579518,"ECCENTRICITY":0.0001495,"INCLINATION":43.0029,"RA_OF_ASC_NODE":308.5718,"ARG_OF_PERICENTER":279.0037,"MEAN_ANOMALY":81.0645,"EPHEMERIS_TYPE":0,"CLASSIFICATION_TYPE":"U","NORAD_CAT_ID":58853,"ELEMENT_SET_NO":999,"REV_AT_EPOCH":11746,"BSTAR":-2.419363e-5,"MEAN_MOTION_DOT":-9.28e-6,"MEAN_MOTION_DDOT":0},{"OBJECT_NAME":"STARLINK-31158","OBJECT_ID":"2024-019B","EPOCH":"2026-02-27T02:16:41.036160","MEAN_MOTION":15.27584471,"ECCENTRICITY":0.00016378,"INCLINATION":43.003,"RA_OF_ASC_NODE":308.6177,"ARG_OF_PERICENTER":254.2224,"MEAN_ANOMALY":105.8447,"EPHEMERIS_TYPE":0,"CLASSIFICATION_TYPE":"U","NORAD_CAT_ID":58854,"ELEMENT_SET_NO":999,"REV_AT_EPOCH":11746,"BSTAR":-4.5457e-8,"MEAN_MOTION_DOT":-2.64e-6,"MEAN_MOTION_DDOT":0},{"OBJECT_NAME":"STARLINK-31237","OBJECT_ID":"2024-019C","EPOCH":"2026-02-27T00:25:53.843520","MEAN_MOTION":15.27573906,"ECCENTRICITY":0.0001159,"INCLINATION":43.0042,"RA_OF_ASC_NODE":308.924,"ARG_OF_PERICENTER":279.9468,"MEAN_ANOMALY":80.1253,"EPHEMERIS_TYPE":0,"CLASSIFICATION_TYPE":"U","NORAD_CAT_ID":58855,"ELEMENT_SET_NO":999,"REV_AT_EPOCH":11745,"BSTAR":4.185531e-6,"MEAN_MOTION_DOT":-1.47e-6,"MEAN_MOTION_DDOT":0}]
