STARLINK-31171          
1 58834U 24017J   26058.18431418 -.00000315  00000+0  15097-5 0  9999
2 58834  53.1519 229.5609 0002614  73.2019 286.9268 15.30198553118777
STARLINK-31246          
1 58835U 24017K   26057.95313584  .00003418  00000+0  12749-3 0  9992
2 58835  53.1560 254.1012 0001006 106.8743 253.2368 15.30193812118419
STARLINK-31251          
1 58836U 24017L   26057.96052005  .00002725  00000+0  10411-3 0  9996
2 58836  53.1603 254.1465 0000744  74.0282 286.0801 15.30195879118525
STARLINK-31249          
1 58838U 24017N   26058.22811848  .00003901  00000+0  14388-3 0  9990
2 58838  53.1581 252.9726 0001029  92.4916 267.6202 15.30173986118450
STARLINK-31250          
1 58839U 24017P   26057.54234184  .00000088  00000+0  15102-4 0  9996
2 58839  53.1615 245.8599 0001212  97.4781 262.6357 15.30197763118441
STARLINK-31248          
1 58840U 24017Q   26058.00844649  .00000614  00000+0  32845-4 0  9991
2 58840  53.1591 266.4939 0001270  99.8239 260.2905 15.30197065118359
STARLINK-31236          
1 58841U 24017R   26057.90786891  .00000959  00000+0  44504-4 0  9991
2 58841  53.1607 254.5264 0001060 100.9271 259.1849 15.30199300118408
STARLINK-31228          
1 58842U 24017S   26058.23127641 -.00002596  00000+0 -75543-4 0  9999
2 58842  53.1580 252.9904 0001187  94.7507 265.3629 15.30203033118453
STARLINK-31280          
1 58843U 24017T   26058.23761725  .00003764  00000+0  13917-3 0  9999
2 58843  53.1595 253.0300 0000907 106.7612 253.3489 15.30196331118455
STARLINK-31269          
1 58844U 24017U   26058.07299912  .00000628  00000+0  33335-4 0  9999
2 58844  53.1620 343.7619 0001259 114.2931 245.8201 15.30196280117140
STARLINK-31264          
1 58845U 24017V   26058.08766722 -.00000392  00000+0 -11009-5 0  9994
2 58845  53.1613 343.1471 0001057  95.5626 264.5495 15.30194586117152
STARLINK-31273          
1 58846U 24017W   26058.24078091 -.00000212  00000+0  49619-5 0  9996
2 58846  53.1594 253.0490 0001459  87.8045 272.3123 15.30190643118455
STARLINK-31262          
1 58847U 24017X   26058.09505841  .00004117  00000+0  15114-3 0  9996
2 58847  53.1624 343.1917 0001124  97.4158 262.6971 15.30177819117155
STARLINK-31238          
1 58853U 24019A   26058.08849972 -.00000928  00000+0 -24194-4 0  9997
2 58853  43.0029 308.5718 0001495 279.0037  81.0645 15.27579518117461
STARLINK-31158          
1 58854U 24019B   26058.09491940 -.00000264  00000+0 -45457-7 0  9998
2 58854  43.0030 308.6177 0001637 254.2224 105.8447 15.27584471117464
STARLINK-31237          
1 58855U 24019C   26058.01798430 -.00000147  00000+0  41855-5 0  9990
2 58855  43.0042 308.9240 0001159 279.9468  80.1253 15.27573906117455
